NORAD_CAT_ID,OBJECT_NAME,OBJECT_TYPE,EPOCH,MEAN_MOTION,ECCENTRICITY,INCLINATION,RA_OF_ASC_NODE,ARG_OF_PERICENTER,MEAN_ANOMALY,BSTAR,MEAN_MOTION_DOT,MEAN_MOTION_DDOT,TLE_LINE0,TLE_LINE1,TLE_LINE2,SEMIMAJOR_AXIS,PERIOD,APOGEE,PERIGEE,DECAYED
52598.0,STARLINK-4019,PAYLOAD,2023-10-08 17:07:55,15.08843012,0.0001603,53.2164,287.9554,90.2819,269.8357,-2.478e-07,-2.92e-06,0.0,0 STARLINK-4019,1 52598U 22052A   23281.71383177 -.00000292  00000-0 -24780-6 0  9995,2 52598  53.2164 287.9554 0001603  90.2819 269.8357 15.08843012 77850,6917.871,95.437,540.845,538.627,0.0
52598.0,STARLINK-4019,PAYLOAD,2023-10-09 07:26:23,15.08845622,0.0001686,53.2161,285.2805,93.9562,266.1623,0.00019132,2.759e-05,0.0,0 STARLINK-4019,1 52598U 22052A   23282.30999087  .00002759  00000-0  19132-3 0  9994,2 52598  53.2161 285.2805 0001686  93.9562 266.1623 15.08845622 78376,6917.863,95.437,540.895,538.562,0.0
52598.0,STARLINK-4019,PAYLOAD,2023-10-09 16:58:41,15.08844091,0.0001661,53.2159,283.4967,90.9369,269.1813,6.6647e-05,7.73e-06,0.0,0 STARLINK-4019,1 52598U 22052A   23282.70743034  .00000773  00000-0  66647-4 0  9995,2 52598  53.2159 283.4967 0001661  90.9369 269.1813 15.08844091 78437,6917.868,95.437,540.882,538.584,0.0
52598.0,STARLINK-4019,PAYLOAD,2023-10-10 00:55:38,15.08835133,0.0001726,53.2169,282.0107,94.2422,265.8767,5.1264e-05,5.28e-06,0.0,0 STARLINK-4019,1 52598U 22052A   23283.03863696  .00000528  00000-0  51264-4 0  9996,2 52598  53.2169 282.0107 0001726  94.2422 265.8767 15.08835133 78054,6917.895,95.438,540.954,538.566,0.0
52598.0,STARLINK-4019,PAYLOAD,2023-10-10 08:52:33,15.08841419,0.0001618,53.2157,280.5227,91.2553,268.8625,9.7658e-05,1.267e-05,0.0,0 STARLINK-4019,1 52598U 22052A   23283.36983356  .00001267  00000-0  97658-4 0  9996,2 52598  53.2157 280.5227 0001618  91.2553 268.8625 15.08841419 78532,6917.876,95.437,540.86,538.622,0.0
52598.0,STARLINK-4019,PAYLOAD,2023-10-10 16:49:29,15.08834252,0.0001739,53.2156,279.0323,84.3044,275.8146,-2.0088e-05,-6.08e-06,0.0,0 STARLINK-4019,1 52598U 22052A   23283.70103793 -.00000608  00000-0 -20088-4 0  9996,2 52598  53.2156 279.0323 0001739  84.3044 275.8146 15.08834252 78581,6917.898,95.438,540.966,538.56,0.0
52598.0,STARLINK-4019,PAYLOAD,2023-10-11 05:32:34,15.08836883,0.0001744,53.2156,276.6551,88.5274,271.5917,-2.2169e-05,-6.41e-06,0.0,0 STARLINK-4019,1 52598U 22052A   23284.23095891 -.00000641  00000-0 -22169-4 0  9993,2 52598  53.2156 276.6551 0001744  88.5274 271.5917 15.08836883 78237,6917.89,95.438,540.961,538.548,0.0
52598.0,STARLINK-4019,PAYLOAD,2023-10-11 07:07:57,15.08837785,0.0001748,53.2156,276.3578,87.1505,272.9687,-4.3176e-06,-3.57e-06,0.0,0 STARLINK-4019,1 52598U 22052A   23284.29719878 -.00000357  00000-0 -43176-5 0  9993,2 52598  53.2156 276.3578 0001748  87.1505 272.9687 15.08837785 78678,6917.887,95.438,540.961,538.543,0.0
52598.0,STARLINK-4019,PAYLOAD,2023-10-12 06:58:45,15.08843046,0.0001495,53.2154,271.8974,92.4956,267.6207,0.00014592,2.035e-05,0.0,0 STARLINK-4019,1 52598U 22052A   23285.29079937  .00002035  00000-0  14592-3 0  9990,2 52598  53.2154 271.8974 0001495  92.4956 267.6207 15.08843046 78827,6917.871,95.437,540.77,538.702,0.0
52598.0,STARLINK-4019,PAYLOAD,2023-10-12 16:31:04,15.08840969,0.0001425,53.2152,270.1124,95.2663,264.8492,8.6886e-05,1.095e-05,0.0,0 STARLINK-4019,1 52598U 22052A   23285.68824081  .00001095  00000-0  86886-4 0  9992,2 52598  53.2152 270.1124 0001425  95.2663 264.8492 15.08840969 78458,6917.877,95.437,540.728,538.757,0.0
52598.0,STARLINK-4019,PAYLOAD,2023-10-13 08:24:54,15.08851841,0.0001626,53.2162,267.1361,98.0082,262.1095,0.00029401,4.396e-05,0.0,0 STARLINK-4019,1 52598U 22052A   23286.35063647  .00004396  00000-0  29401-3 0  9996,2 52598  53.2162 267.1361 0001626  98.0082 262.1095 15.08851841 78986,6917.844,95.437,540.834,538.584,0.0
52598.0,STARLINK-4019,PAYLOAD,2023-10-13 16:21:51,15.08841272,0.0001896,53.2171,265.6519,86.464,273.6569,0.00012821,1.753e-05,0.0,0 STARLINK-4019,1 52598U 22052A   23286.68184362  .00001753  00000-0  12821-3 0  9992,2 52598  53.2171 265.6519 0001896  86.4640 273.6569 15.08841272 79031,6917.877,95.437,541.053,538.43,0.0
52598.0,STARLINK-4019,PAYLOAD,2023-10-14 05:04:55,15.08852321,0.0001559,53.2156,263.2718,94.9475,265.1695,0.00024989,3.693e-05,0.0,0 STARLINK-4019,1 52598U 22052A   23287.21175629  .00003693  00000-0  24989-3 0  9991,2 52598  53.2156 263.2718 0001559  94.9475 265.1695 15.08852321 78688,6917.843,95.437,540.786,538.629,0.0
52598.0,STARLINK-4019,PAYLOAD,2023-10-14 22:34:10,15.08839096,0.0001643,53.2151,259.9986,92.7017,267.4163,3.2723e-05,2.33e-06,0.0,0 STARLINK-4019,1 52598U 22052A   23287.94040223  .00000233  00000-0  32723-4 0  9995,2 52598  53.2151 259.9986 0001643  92.7017 267.4163 15.08839096 79224,6917.883,95.438,540.885,538.612,0.0
52598.0,STARLINK-4019,PAYLOAD,2023-10-15 04:55:43,15.08836546,0.0001396,53.2163,258.8105,98.9031,261.2119,-4.1817e-05,-9.53e-06,0.0,0 STARLINK-4019,1 52598U 22052A   23288.20536330 -.00000953  00000-0 -41817-4 0  9999,2 52598  53.2163 258.8105 0001396  98.9031 261.2119 15.08836546 78833,6917.891,95.438,540.722,538.79,0.0
52598.0,STARLINK-4019,PAYLOAD,2023-10-15 08:06:29,15.08836305,0.0001414,53.2165,258.2162,98.4513,261.6639,-1.8856e-05,-5.88e-06,0.0,0 STARLINK-4019,1 52598U 22052A   23288.33784413 -.00000588  00000-0 -18856-4 0  9991,2 52598  53.2165 258.2162 0001414  98.4513 261.6639 15.08836305 79287,6917.892,95.438,540.735,538.778,0.0
52598.0,STARLINK-4019,PAYLOAD,2023-10-16 04:46:30,15.08844718,0.0001311,53.2163,254.3521,92.9665,267.1477,0.00026497,3.932e-05,0.0,0 STARLINK-4019,1 52598U 22052A   23289.19896408  .00003932  00000-0  26497-3 0  9997,2 52598  53.2163 254.3521 0001311  92.9665 267.1477 15.08844718 79417,6917.866,95.437,540.638,538.824,0.0
52598.0,STARLINK-4019,PAYLOAD,2023-10-16 20:40:21,15.08843118,0.0001364,53.2166,251.3805,98.5724,261.5423,0.00030524,4.574e-05,0.0,0 STARLINK-4019,1 52598U 22052A   23289.86136573  .00004574  00000-0  30524-3 0  9990,2 52598  53.2166 251.3805 0001364  98.5724 261.5423 15.08843118 79511,6917.871,95.437,540.679,538.792,0.0
52598.0,STARLINK-4019,PAYLOAD,2023-10-18 02:52:41,15.08842875,0.0001622,53.2167,245.7297,91.1879,268.9299,1.7787e-05,-5e-08,0.0,0 STARLINK-4019,1 52598U 22052A   23291.11992626 -.00000005  00000-0  17787-4 0  9993,2 52598  53.2167 245.7297 0001622  91.1879 268.9299 15.08842875 79703,6917.872,95.437,540.859,538.615,0.0
52598.0,STARLINK-4019,PAYLOAD,2023-10-18 04:28:04,15.08846188,0.0001597,53.2168,245.4311,84.0565,276.0609,6.3161e-05,7.17e-06,0.0,0 STARLINK-4019,1 52598U 22052A   23291.18616468  .00000717  00000-0  63161-4 0  9993,2 52598  53.2168 245.4311 0001597  84.0565 276.0609 15.08846188 79281,6917.861,95.437,540.831,538.622,0.0
52598.0,STARLINK-4019,PAYLOAD,2023-10-18 14:00:23,15.08847853,0.0001559,53.2165,243.6469,81.217,278.8999,0.00017745,2.538e-05,0.0,0 STARLINK-4019,1 52598U 22052A   23291.58360428  .00002538  00000-0  17745-3 0  9998,2 52598  53.2165 243.6469 0001559  81.2170 278.8999 15.08847853 79777,6917.856,95.437,540.8,538.643,0.0
52598.0,STARLINK-4019,PAYLOAD,2023-10-19 05:54:14,15.08856502,0.0001688,53.2165,240.6748,94.3445,265.774,0.00029728,4.448e-05,0.0,0 STARLINK-4019,1 52598U 22052A   23292.24599839  .00004448  00000-0  29728-3 0  9998,2 52598  53.2165 240.6748 0001688  94.3445 265.7740 15.08856502 79441,6917.83,95.437,540.863,538.527,0.0
52598.0,STARLINK-4019,PAYLOAD,2023-10-20 04:09:38,15.08853353,0.0001772,53.2171,236.5085,105.4271,254.6917,0.00017679,2.528e-05,0.0,0 STARLINK-4019,1 52598U 22052A   23293.17335811  .00002528  00000-0  17679-3 0  9998,2 52598  53.2171 236.5085 0001772 105.4271 254.6917 15.08853353 79580,6917.84,95.437,540.93,538.479,0.0
52598.0,STARLINK-4019,PAYLOAD,2023-10-20 05:45:01,15.08857098,0.0001764,53.217,236.2109,105.846,254.2727,0.00023537,3.462e-05,0.0,0 STARLINK-4019,1 52598U 22052A   23293.23959614  .00003462  00000-0  23537-3 0  9996,2 52598  53.2170 236.2109 0001764 105.8460 254.2727 15.08857098 80024,6917.828,95.436,540.913,538.473,0.0
52598.0,STARLINK-4019,PAYLOAD,2023-10-21 02:25:03,15.08832454,0.0001764,53.2173,232.3454,91.3846,268.7348,-0.00013859,-2.493e-05,0.0,0 STARLINK-4019,1 52598U 22052A   23294.10073270 -.00002493  00000-0 -13859-3 0  9999,2 52598  53.2173 232.3454 0001764  91.3846 268.7348 15.08832454 79727,6917.903,95.438,540.989,538.548,0.0
52598.0,STARLINK-4019,PAYLOAD,2023-10-21 13:32:44,15.08841749,0.0001795,53.2179,230.2625,106.6626,253.4563,5.2412e-05,5.46e-06,0.0,0 STARLINK-4019,1 52598U 22052A   23294.56440886  .00000546  00000-0  52412-4 0  9994,2 52598  53.2179 230.2625 0001795 106.6626 253.4563 15.08841749 80224,6917.875,95.437,540.982,538.498,0.0
52598.0,STARLINK-4019,PAYLOAD,2023-10-21 15:08:08,15.08843573,0.0001445,53.2167,229.9666,101.6907,258.4248,0.0002668,3.961e-05,0.0,0 STARLINK-4019,1 52598U 22052A   23294.63064826  .00003961  00000-0  26680-3 0  9999,2 52598  53.2167 229.9666 0001445 101.6907 258.4248 15.08843573 79804,6917.869,95.437,540.734,538.735,0.0
52598.0,STARLINK-4019,PAYLOAD,2023-10-21 23:05:03,15.08859824,0.0001432,53.2155,228.4812,93.906,266.2096,0.0006899,0.00010715,0.0,0 STARLINK-4019,1 52598U 22052A   23294.96184528  .00010715  00000-0  68990-3 0  9992,2 52598  53.2155 228.4812 0001432  93.9060 266.2096 15.08859824 80285,6917.82,95.436,540.675,538.694,0.0
52598.0,STARLINK-4019,PAYLOAD,2023-10-22 02:15:49,15.08873164,0.0001425,53.2158,227.886,96.2315,263.884,0.0012799,0.00020159,0.0,0 STARLINK-4019,1 52598U 22052A   23295.09432406  .00020159  00000-0  12799-2 0  9996,2 52598  53.2158 227.8860 0001425  96.2315 263.8840 15.08873164 79871,6917.779,95.435,540.63,538.658,0.0
52598.0,STARLINK-4019,PAYLOAD,2023-10-22 05:26:35,15.08881122,0.0001467,53.2157,227.2912,95.0209,265.0951,0.0012821,0.00020198,0.0,0 STARLINK-4019,1 52598U 22052A   23295.22679971  .00020198  00000-0  12821-2 0  9990,2 52598  53.2157 227.2912 0001467  95.0209 265.0951 15.08881122 80329,6917.755,95.435,540.635,538.605,0.0
